AMC-1 (GE-1)            
1 24315U 96054A   22230.24007601  .00000054  00000+0  00000+0 0  9995
2 24315   5.7624  72.6354 0003052  80.8641 128.6019  1.00272359 94992
AMC-3 (GE-3)            
1 24936U 97050A   22230.21996689 -.00000271  00000+0  00000+0 0  9993
2 24936   4.6923  78.9188 0002909  79.1903 175.6245  1.00271610 91424
ASTRA 1G                
1 25071U 97076A   22230.23313417  .00000104  00000+0  00000+0 0  9990
2 25071   6.3823  67.8229 0003490  82.0031 280.0563  1.00270461 90513
ASTRA 2A                
1 25462U 98050A   22230.15015459  .00000059  00000+0  00000+0 0  9992
2 25462   3.5545  84.9323 0002151  73.6518 279.1488  1.00273526 87719
AMC-4 (GE-4)            
1 25954U 99060A   22229.56002368  .00000077  00000+0  00000+0 0  9998
2 25954   1.6696  91.2032 0003052  61.2648 240.1325  1.00272245 29516
NSS-11 (AAP-1)          
1 26554U 00059A   22229.52969619  .00000015  00000+0  00000+0 0  9994
2 26554   0.0582 286.9373 0002039 210.2074 195.4134  1.00271902 27252
AMC-6 (GE-6)            
1 26580U 00067A   22230.21274367  .00000096  00000+0  00000+0 0  9998
2 26580   0.0417 281.3168 0002626 226.9100 115.8951  1.00272981 79950
ASTRA 2D                
1 26638U 00081A   22230.14344017  .00000119  00000+0  00000+0 0  9996
2 26638   7.4192  59.8856 0001828  96.6170 245.3127  1.00275214 79359
AMC-8 (GE-8)            
1 26639U 00081B   22230.21510388  .00000078  00000+0  00000+0 0  9995
2 26639   2.5972  87.9491 0002787  28.7875 152.2612  1.00272634 79248
ASTRA 2C                
1 26853U 01025A   22230.21996771 -.00000269  00000+0  00000+0 0  9999
2 26853   4.7164  78.7245 0002748  72.6881 181.8414  1.00274786 77549
ASTRA 3A                
1 27400U 02015B   22229.34530352 -.00000216  00000+0  00000+0 0  9991
2 27400   7.5189  58.7752 0001806 109.8624 194.5960  1.00273717 74681
NSS-7                   
1 27414U 02019A   22229.98521434 -.00000169  00000+0  00000+0 0  9998
2 27414   6.0385  70.8093 0002274  91.1740 139.0280  1.00271968 74521
NSS-6                   
1 27603U 02057A   22229.59846234  .00000098  00000+0  00000+0 0  9995
2 27603   1.7613  90.9905 0003459  64.6298 216.2745  1.00275772 72003
AMC-11 (GE-11)          
1 28252U 04017A   22229.56515684  .00000059  00000+0  00000+0 0  9990
2 28252   0.0571 288.5264 0002611 217.7953 252.0453  1.00274672 66847
AMC-15                  
1 28446U 04041A   22229.59707692 -.00000098  00000+0  00000+0 0  9991
2 28446   0.0592 289.1777 0003054 208.7014 297.9484  1.00272072 65282
NSS-10 (AMC-12)         
1 28526U 05003A   22229.43191646 -.00000262  00000+0  00000+0 0  9991
2 28526   2.9331  86.7226 0002852  50.2214 306.8531  1.00270377 39112
ASTRA 1KR               
1 29055U 06012A   22229.72202388  .00000111  00000+0  00000+0 0  9990
2 29055   0.0562 276.7772 0003811 269.8291  58.5725  1.00272204 59716
AMC-18                  
1 29644U 06054B   22229.47889118 -.00000225  00000+0  00000+0 0  9991
2 29644   0.0510 292.8330 0002648 221.9957 260.3904  1.00272065 57509
ASTRA 1L                
1 31306U 07016A   22226.93914749  .00000103  00000+0  00000+0 0  9999
2 31306   0.0744 297.5020 0001374 249.6954 133.3789  1.00273756 55981
ASTRA 4A (SIRIUS 4)     
1 32299U 07057A   22230.28317036  .00000025  00000+0  00000+0 0  9998
2 32299   0.0429 282.5280 0002942 232.2594 278.5760  1.00273068 53935
AMC-21                  
1 33275U 08038B   22230.25727184  .00000028  00000+0  00000+0 0  9992
2 33275   0.0583 287.1113 0002474 222.1519 145.0309  1.00271439 51432
ASTRA 1M                
1 33436U 08057A   22229.72202388  .00000111  00000+0  00000+0 0  9999
2 33436   0.0263 107.6036 0005291  42.2123  95.4002  1.00275086 50448
CIEL-2                  
1 33453U 08063A   22229.56860890  .00000049  00000+0  00000+0 0  9995
2 33453   0.0385 271.3921 0003000 234.5826 255.7772  1.00272900 50094
NSS-9                   
1 33749U 09008A   22229.23304817  .00000061  00000+0  00000+0 0  9993
2 33749   0.0093 333.2364 0002098 181.1143  78.1989  1.00272207 49491
SES-7 (PROTOSTAR 2)     
1 34941U 09027A   22229.59097373 -.00000354  00000+0  00000+0 0  9990
2 34941   0.0295  87.3907 0001308 137.7480  61.7773  1.00269866 48589
NSS-12                  
1 36032U 09058A   22230.15006740  .00000063  00000+0  00000+0 0  9995
2 36032   0.0241 330.9224 0002820 186.2237 280.3568  1.00272928 46886
SES-1                   
1 36516U 10016A   22229.60199550 -.00000124  00000+0  00000+0 0  9997
2 36516   0.0255 327.2963 0002334 178.7750 295.5949  1.00271927 45005
ASTRA 3B                
1 36581U 10021A   22230.23313417  .00000129  00000+0  00000+0 0  9990
2 36581   0.0672  64.5722 0003364  87.6061 281.7947  1.00272468 44624
SES-3                   
1 37748U 11035A   22230.20182711 -.00000110  00000+0  00000+0 0  9991
2 37748   0.0634 289.8164 0002652 222.2664 144.0999  1.00272477 40663
ASTRA 1N                
1 37775U 11041A   22228.00338219  .00000106  00000+0  00000+0 0  9993
2 37775   0.0475  29.7646 0003683  57.8576 257.1329  1.00270716 30476
SES-2                   
1 37809U 11049A   22229.34561703 -.00000206  00000+0  00000+0 0  9995
2 37809   0.0513 295.1134 0002749 208.1515 219.8412  1.00271853 39924
QUETZSAT 1              
1 37826U 11054A   22229.28488291 -.00000251  00000+0  00000+0 0  9993
2 37826   0.0157  75.6662 0002815  83.0608 192.4643  1.00269575 35859
SES-4                   
1 38087U 12007A   22225.75764918 -.00000187  00000+0  00000+0 0  9991
2 38087   0.0129  23.0798 0002239 121.2500  68.5794  1.00271022 38168
SES-5                   
1 38652U 12036A   22229.62948983  .00000024  00000+0  00000+0 0  9996
2 38652   0.0506 290.0840 0001988 215.7755  51.6959  1.00272370 37038
ASTRA 2F                
1 38778U 12051A   22230.28779198  .00000142  00000+0  00000+0 0  9997
2 38778   0.0847 252.4739 0003560 300.4146 265.5009  1.00271831 36265
SES-6                   
1 39172U 13026A   22229.41741204 -.00000271  00000+0  00000+0 0  9993
2 39172   0.0517 299.2857 0001963 216.9377 279.2796  1.00269982 33682
O3B FM5                 
1 39188U 13031A   22229.04401899 -.00000027  00000+0  00000+0 0  9997
2 39188   0.0561  21.8095 0002572 126.5234 211.6800  5.00115272166999
O3B FM4                 
1 39189U 13031B   22229.29996744 -.00000027  00000+0  00000+0 0  9993
2 39189   0.0558 352.6499 0002534 155.6597 211.7032  5.00115937167113
O3B FM2                 
1 39190U 13031C   22227.59243491 -.00000027  00000+0  00000+0 0  9990
2 39190   0.0585 348.2290 0002573 157.3160 214.4685  5.00116814166997
O3B PFM                 
1 39191U 13031D   22228.61811155 -.00000027  00000+0  00000+0 0  9993
2 39191   0.0529  12.7825 0002647 132.7172 214.5147  5.00115689166594
ASTRA 2E                
1 39285U 13056A   22230.21616525  .00000142  00000+0  00000+0 0  9994
2 39285   0.0621  35.6259 0002074 103.6802 293.5177  1.00270408 32563
SES-8                   
1 39460U 13071A   22226.77277674 -.00000287  00000+0  00000+0 0  9991
2 39460   0.0512 270.2742 0002560 210.8870 215.1877  1.00270945 30366
ASTRA 5B                
1 39617U 14011B   22228.79893638  .00000143  00000+0  00000+0 0  9998
2 39617   0.0343  13.4757 0003917 141.8018 128.9709  1.00273869 30823
O3B FM3                 
1 40079U 14038A   22229.07264594 -.00000027  00000+0  00000+0 0  9998
2 40079   0.0550   0.7458 0005024 138.8578 220.4312  5.00115384143006
O3B FM7                 
1 40080U 14038B   22225.62057735 -.00000027  00000+0  00000+0 0  9994
2 40080   0.0587 358.6075 0001165 183.0126 178.3758  5.00115409147660
O3B FM6                 
1 40081U 14038C   22227.84574817 -.00000027  00000+0  00000+0 0  9996
2 40081   0.0543 359.9478 0002692 145.4409 214.6257  5.00115414147727
O3B FM8                 
1 40082U 14038D   22229.29892682 -.00000027  00000+0  00000+0 0  9991
2 40082   0.0538 356.5017 0002674 147.0418 216.4722  5.00115675147919
O3B FM10                
1 40348U 14083A   22229.32495155 -.00000027  00000+0  00000+0 0  9994
2 40348   0.0496   8.4292 0002625 137.5919 213.9932  5.00115133139860
O3B FM11                
1 40349U 14083B   22229.13853081 -.00000027  00000+0  00000+0 0  9990
2 40349   0.0542   9.5087 0002312 151.2194 199.2782  5.00115406139871
O3B FM12                
1 40350U 14083C   22229.56551207 -.00000027  00000+0  00000+0 0  9994
2 40350   0.0539   8.5172 0002709 142.0409 209.4548  5.00115285139903
O3B FM9                 
1 40351U 14083D   22228.99277585 -.00000027  00000+0  00000+0 0  9995
2 40351   0.0552  10.1170 0002584 136.8177 213.0789  5.00115611140026
ASTRA 2G                
1 40364U 14089A   22228.73050924  .00000138  00000+0  00000+0 0  9995
2 40364   0.0334  27.3672 0003389  65.6720 163.2070  1.00274274 27921
SES-9                   
1 41380U 16013A   22225.68799420 -.00000364  00000+0  00000+0 0  9997
2 41380   0.0160 264.5118 0001901 222.7010 190.8598  1.00268001 23369
SES-10                  
1 42432U 17017A   22230.32462606 -.00000280  00000+0  00000+0 0  9998
2 42432   0.0167  91.6230 0002721  58.8645 226.1210  1.00269682 19705
SES-15                  
1 42709U 17026A   22228.58774970  .00000048  00000+0  00000+0 0  9991
2 42709   0.0288 346.3765 0000340 167.8182 253.1718  1.00268723 20093
SES-11 (ECHOSTAR 105)   
1 42967U 17063A   22229.59707803 -.00000098  00000+0  00000+0 0  9997
2 42967   0.0151  98.7112 0002558  58.0119 279.1984  1.00271797 17685
SES-14                  
1 43175U 18012B   22226.12225679 -.00000296  00000+0  00000+0 0  9996
2 43175   0.0065  49.9323 0001069  88.1350 180.9460  1.00271506 16988
O3B FM15                
1 43231U 18024A   22228.65893762 -.00000027  00000+0  00000+0 0  9998
2 43231   0.0461   7.9414 0002889 140.1090 211.9644  5.00115975 80966
O3B FM16                
1 43232U 18024B   22227.91275621 -.00000027  00000+0  00000+0 0  9995
2 43232   0.0418   8.6884 0002864 139.1011 212.2249  5.00115867 80844
O3B FM14                
1 43233U 18024C   22227.95235461 -.00000027  00000+0  00000+0 0  9998
2 43233   0.0404   7.9461 0002680 141.3506 210.7159  5.00115283 80859
O3B FM13                
1 43234U 18024D   22230.00475872 -.00000027  00000+0  00000+0 0  9991
2 43234   0.0493  34.2331 0003569 124.1097 201.6702  5.00115038 81197
SES-12                  
1 43488U 18049A   22226.77277675 -.00000286  00000+0  00000+0 0  9996
2 43488   0.0144  64.3470 0001351 161.1720 110.8220  1.00270849 15359
O3B FM20                
1 44112U 19020A   22228.77863833 -.00000027  00000+0  00000+0 0  9993
2 44112   0.0495   7.5642 0002937 147.9227 204.5244  5.00115457 61511
O3B FM19                
1 44113U 19020B   22228.60552172 -.00000027  00000+0  00000+0 0  9997
2 44113   0.0586  21.2174 0001763 132.3023 206.4865  5.00115027 61360
O3B FM17                
1 44114U 19020C   22228.48617405 -.00000027  00000+0  00000+0 0  9995
2 44114   0.0414 344.2198 0003001 164.7183 211.0768  5.00115531 61452
O3B FM18                
1 44115U 19020D   22228.43270442 -.00000027  00000+0  00000+0 0  9997
2 44115   0.0496   7.9871 0002871 137.3549 214.6738  5.00115781 61565
SES-17                  
1 49332U 21095A   22229.29120406 -.00000282  00000+0  00000+0 0  9990
2 49332   0.0148 109.1811 0001088  44.7361 209.4438  1.00269665  3805
SES-22                  
1 52933U 22071A   22230.35614244  .00000080  00000+0  00000+0 0  9998
2 52933   0.0461 282.3894 0002246 244.7738 152.7221  1.00271972   537
